RAVAN                   
1 41849U 16067B   19030.20090857  .00000572  00000-0  53549-4 0  9994
2 41849  97.9191 127.3102 0009840 125.4668 234.7473 14.98067354121116
CELTEE 1                
1 41850U 16067C   19030.17156129 -.00000412  00000-0 -30599-4 0  9992
2 41850  97.9175 126.2940 0009828 123.2485 236.9679 14.96937484121050
OPTICUBE 04             
1 41851U 16067D   19030.22850652 -.00000123  00000-0 -54723-5 0  9996
2 41851  97.9173 126.1951 0010119 123.6895 236.5292 14.96758752121050
AEROCUBE 8D             
1 41852U 16067E   19030.22124458  .00000398  00000-0  40238-4 0  9992
2 41852  97.9186 126.0149 0011022 124.5442 235.6821 14.96634174121032
AEROCUBE 8C             
1 41853U 16067F   19030.50825373 -.00000318  00000-0 -22582-4 0  9994
2 41853  97.9179 126.2527 0011009 125.9162 234.3082 14.96594760121071
PROMETHEUS 2-1          
1 41854U 16067G   19030.22627554  .00000229  00000-0  25313-4 0  9999
2 41854  97.9192 126.0447 0011593 125.6568 234.5734 14.96772408121030
PROMETHEUS 2-3          
1 41855U 16067H   19030.69693731  .00000017  00000-0  67950-5 0  9990
2 41855  97.9194 126.5318 0011711 124.7367 235.4959 14.96774042121107
INS-1B                  
1 41954U 17008G   19029.61998067  .00001009  00000-0  45158-4 0  9993
2 41954  97.4190  96.3965 0007660 279.5898  80.4473 15.23573344108473
BGUSAT                  
1 41999U 17008BD  19030.77573991  .00001775  00000-0  72915-4 0  9997
2 41999  97.4246  99.3566 0006661 292.8067  67.2467 15.25505904108116
DIDO-2                  
1 42000U 17008BE  19030.66022170  .00000726  00000-0  33265-4 0  9997
2 42000  97.4202  97.9464 0007061 298.4157  61.6368 15.23629067108034
PEASSS                  
1 42015U 17008BV  19030.64289319  .00000950  00000-0  41515-4 0  9997
2 42015  97.4205  98.6799 0005044 308.4808  51.5976 15.24523856108567
AL-FARABI 1             
1 42016U 17008BW  19030.17037810  .00001176  00000-0  49921-4 0  9993
2 42016  97.4217  98.6033 0004915 310.2162  49.8645 15.25066690108632
NAYIF-1 (EO-88)         
1 42017U 17008BX  19030.81683897  .00001188  00000-0  50335-4 0  9991
2 42017  97.4214  99.2530 0004878 307.8016  52.2780 15.25097339108752
HAVELSAT                
1 42700U 98067LH  19030.87436792  .00152869  20761-4  32406-3 0  9991
2 42700  51.6217 253.7731 0002231 189.1776 170.9193 15.98434946 98035
CXBN-2                  
1 42704U 98067LM  19030.65845664  .00146514  19904-4  32235-3 0  9990
2 42704  51.6247 256.9267 0002823 210.8471 149.2373 15.97784934 97898
PHOENIX                 
1 42706U 98067LP  19030.77620561  .00038383  00000-0  17958-3 0  9994
2 42706  51.6269 266.1311 0000540 171.8614 188.2398 15.82849911 97774
X-CUBESAT               
1 42707U 98067LQ  19030.77513302  .00795122  40531-3  52959-3 0  9996
2 42707  51.6148 249.1378 0006368 247.2880 112.7464 16.16353233 97986
QBEE50-LTU-OC           
1 42708U 98067LR  19030.78211041  .00158065  21441-4  33116-3 0  9996
2 42708  51.6210 255.4352 0003260 205.9631 154.1215 15.98624964 97864
ALTAIR PATHFINDER       
1 42711U 98067LS  19030.29456552  .00016823  00000-0  12996-3 0  9996
2 42711  51.6335 287.8868 0001933 335.2562  24.8343 15.72053686 97103
SHARC                   
1 42712U 98067LT  19030.71028842  .00050049  00000-0  26519-3 0  9995
2 42712  51.6316 282.4291 0001005 127.9812 232.1281 15.80031656 97453
ZA-AEROSAT              
1 42713U 98067LU  19030.83105134  .00037801  00000-0  19143-3 0  9995
2 42713  51.6334 271.0723 0000198 270.4706  89.6274 15.81149242 97376
CSUNSAT 1               
1 42715U 98067LW  19030.78900191  .00049174  00000-0  21988-3 0  9993
2 42715  51.6307 268.5207 0000519 306.5607  53.5348 15.83700269 97404
SPACECUBE               
1 42717U 98067LY  19030.83923017  .00147981  20090-4  32377-3 0  9997
2 42717  51.6161 255.7002 0002677 192.4327 167.6616 15.97881287 96941
NJUST-1                 
1 42722U 98067MB  19030.81048822  .00035018  00000-0  20215-3 0  9993
2 42722  51.6381 275.4128 0003053  46.8699 356.6307 15.78294523 96387
LILACSAT-1              
1 42725U 98067ME  19030.79554374  .00093925  00000-0  30971-3 0  9998
2 42725  51.6331 263.8959 0001996  76.2819 328.9635 15.89684239 96445
NSIGHT-1                
1 42726U 98067MF  19030.76445462  .00010614  00000-0  10695-3 0  9998
2 42726  51.6384 296.4578 0004646  18.1713 341.9448 15.66014733 96017
SNUSAT-1                
1 42727U 98067MG  19030.82559764  .00075629  00000-0  25987-3 0  9994
2 42727  51.6279 264.0980 0000551 327.6151  32.4820 15.88946898 96403
POLYITAN-2-SAU          
1 42732U 98067MM  19030.77409063  .00615448  22617-3  47009-3 0  9999
2 42732  51.6205 250.7387 0006214 252.7842 107.2494 16.14417979 96465
SNUSAT-1B               
1 42733U 98067MN  19030.87318415  .00100841  15052-4  28911-3 0  9994
2 42733  51.6245 259.8559 0001272 247.3496 112.7377 15.93095775 96356
BEEAGLESAT              
1 42736U 98067MR  19030.82924422  .00048148  00000-0  20346-3 0  9991
2 42736  51.6292 267.2073 0002108  55.3779 304.7423 15.84897596 96317
UCLSAT                  
1 42765U 17036A   19030.14317944  .00000944  00000-0  43819-4 0  9993
2 42765  97.3719  91.0126 0011691   8.8609 351.2832 15.22387541 89234
LITUANICASAT-2          
1 42768U 17036D   19030.37923652  .00001584  00000-0  71801-4 0  9993
2 42768  97.3746  90.7998 0015015 355.9804   4.1309 15.22223265 89119
AALTO-1                 
1 42775U 17036L   19030.21095797  .00000621  00000-0  30973-4 0  9990
2 42775  97.3708  90.1339 0013873 356.5493   3.5645 15.21098408 89001
URSA MAIOR              
1 42776U 17036M   19030.64348034  .00000680  00000-0  33507-4 0  9994
2 42776  97.3715  90.6628 0013605 355.1019   5.0082 15.21215126 89075
COMPASS 2               
1 42777U 17036N   19030.80579183  .00001259  00000-0  57374-4 0  9995
2 42777  97.3746  91.6488 0012409 357.2146   2.9020 15.22428320 89138
DIAMOND RED             
1 42783U 17036U   19030.14124085  .00000777  00000-0  37112-4 0  9998
2 42783  97.3719  90.7198 0012338   8.8921 351.2532 15.21904558 89021
PEGASUS                 
1 42784U 17036V   19030.73708702  .00000884  00000-0  41492-4 0  9993
2 42784  97.3721  91.4595 0012185   6.6694 353.4702 15.22162623 89121
DIAMOND GREEN           
1 42785U 17036W   19030.73176952  .00000785  00000-0  37444-4 0  9992
2 42785  97.3721  91.3183 0012198   7.5059 352.6358 15.21905180 89101
DIAMOND BLUE            
1 42786U 17036X   19030.73077852  .00000781  00000-0  37274-4 0  9999
2 42786  97.3720  91.3167 0012047   7.8576 352.2847 15.21905780 89108
NUDTSAT                 
1 42787U 17036Y   19029.96111382  .00001224  00000-0  55006-4 0  9996
2 42787  97.3755  91.1651 0013160   5.4157 354.7221 15.22962479 88874
SUCHAI                  
1 42788U 17036Z   19029.85907926  .00001046  00000-0  48077-4 0  9994
2 42788  97.3726  90.8097 0011828   9.4982 350.6476 15.22514992 89075
SKCUBE                  
1 42789U 17036AA  19029.80116963  .00000954  00000-0  44199-4 0  9991
2 42789  97.3723  90.7206 0011707   9.7971 350.3491 15.22440644 88986
VZLUSAT-1               
1 42790U 17036AB  19029.61983587  .00001301  00000-0  58295-4 0  9995
2 42790  97.3734  90.8340 0011278  10.3430 349.8036 15.22971635 88977
ROBUSTA-1B              
1 42792U 17036AD  19030.20700326  .00001008  00000-0  46314-4 0  9995
2 42792  97.3722  91.2314 0011264   9.5625 350.5823 15.22601574 89069
CICERO 6                
1 42793U 17036AE  19030.69538902  .00000696  00000-0  33204-4 0  9994
2 42793  97.3708  91.5975 0010503   9.9796 350.1647 15.22309105 89209
D-SAT                   
1 42794U 17036AF  19030.82607398  .00000275  00000-0  29635-4 0  9992
2 42794  97.5610  81.4844 0125458 244.0864 114.7380 14.91010703 87643
TOKI                    
1 42820U 98067MU  19030.11807957  .00051986  00000-0  23642-3 0  9996
2 42820  51.6303 275.2612 0000629 185.8153 174.2842 15.83317863 89605
MAZAALAI (NUMSAT-1)     
1 42822U 98067MW  19030.09831773  .00049389  00000-0  23562-3 0  9993
2 42822  51.6321 276.6642 0000103 135.4322 224.6688 15.82316668 89565
BRAC ONNESHA            
1 42823U 98067MX  19030.12395476  .00050794  00000-0  23629-3 0  9999
2 42823  51.6294 276.0813 0001134 335.4407  24.6541 15.82845145 89574
NIGERIAEDUSAT-1         
1 42824U 98067MY  19030.14078752  .00041842  00000-0  20236-3 0  9992
2 42824  51.6318 277.0080 0001211 357.5198   2.5798 15.82097496 89552
CORVUS BC2              
1 42846U 17042X   19030.17712408  .00000089  00000-0  14096-4 0  9992
2 42846  97.5812 289.6081 0010218 152.0216 208.1554 14.91914932 84214
CORVUS BC1              
1 42847U 17042Y   19030.20676538  .00000210  00000-0  26041-4 0  9999
2 42847  97.5811 289.7205 0009858 151.4337 208.7424 14.92015111 84212
SILU-1 (SILKROAD 1)     
1 42903U 17021F   19030.69190972  .00063891  96824-5  21617-3 0  9996
2 42903  42.7721  15.4811 0015236 130.1111 216.8590 15.89574952 85883
MIRATA                  
1 43015U 17073C   19030.83996701  .00000696  00000-0  60744-4 0  9993
2 43015  97.7172 317.5066 0255035 250.1023 107.2547 14.78672065 64775
MAKERSAT 0              
1 43016U 17073D   19030.76762564  .00000453  00000-0  41492-4 0  9994
2 43016  97.7205 317.6186 0256898 250.5066 106.8233 14.78516515 64758
ASTERIA                 
1 43020U 98067NH  19030.77712791  .00014789  00000-0  15162-3 0  9990
2 43020  51.6424 306.4103 0001414 322.9970  37.0928 15.65204377 68061
DELLINGR (RBLE)         
1 43021U 98067NJ  19030.80817161  .00006196  00000-0  79251-4 0  9995
2 43021  51.6397 312.5427 0001430 306.4083  53.6778 15.60706451 67980
OSIRIS-3U               
1 43027U 98067NL  19030.83110447  .00136196  00000-0  43430-3 0  9990
2 43027  51.6338 282.4220 0002817 194.1363 165.9564 15.90196898 68263
AEROCUBE 7B             
1 43042U 17071F   19029.92161858  .00002310  00000-0  66393-4 0  9997
2 43042  51.6396  15.7779 0005053  15.9368 344.1775 15.40256237 64530
